SL-14 R/B               
1 16792U 86046B   25344.49166715  .00000824  00000+0  92223-4 0  9991
2 16792  82.4810 164.4374 0023603 159.4931 200.7238 14.85480822113161
SL-14 R/B               
1 16882U 86055B   25344.37624160  .00000728  00000+0  81381-4 0  9997
2 16882  82.5206 210.5936 0017444 267.9652 265.4552 14.85527471106104
AJISAI (EGS)            
1 16908U 86061A   25344.84055531 -.00000093  00000+0  30346-4 0  9996
2 16908  50.0114   6.5571 0011291  61.1617 119.7180 12.44514248456936
COSMOS 1812             
1 17295U 87003A   25344.31639172  .00125418  00000+0  84018-3 0  9996
2 17295  82.4871 294.6387 0007303  91.0031 269.2070 15.74840987130274
SL-14 R/B               
1 17567U 87024B   25344.82675201  .00000770  00000+0  85063-4 0  9995
2 17567  82.5276 176.2516 0017911 190.6315 169.4526 14.86020671 74931
COSMOS 1833             
1 17589U 87027A   25344.73563192  .00000130  00000+0  95231-4 0  9995
2 17589  70.9135 152.9904 0022441 334.5253  25.4759 14.13020685997743
SL-16 R/B               
1 17590U 87027B   25344.75548574 -.00000052  00000+0 -18020-5 0  9993
2 17590  71.0027 103.8990 0007457 261.6142  98.4136 14.17152135  2740
SL-14 R/B               
1 17912U 87038B   25344.50658840  .00000700  00000+0  78506-4 0  9996
2 17912  82.5018  20.8044 0020880  98.9391 261.4190 14.85258202 65990
COSMOS 1844             
1 17973U 87041A   25344.65265836 -.00000107  00000+0 -30360-4 0  9991
2 17973  70.8980 221.9735 0030133 160.3953 199.8335 14.14526115990991
SL-14 R/B               
1 18153U 87055B   25344.49885443  .00000827  00000+0  92719-4 0  9994
2 18153  82.5002  73.1002 0019521 311.2065  48.7467 14.85517771 56694
COSMOS 1867             
1 18187U 87060A   25344.85630572  .00000002  00000+0  38262-4 0  9996
2 18187  65.0093 195.4773 0013628 270.9044  89.0479 14.31485650  7227
SL-14 R/B               
1 18749U 88001B   25344.75774315  .00000862  00000+0  97063-4 0  9997
2 18749  82.5132 279.0114 0018283 167.4953 192.6720 14.85420782 28821
