CCSDS_OMM_VERS = 2.0
CREATION_DATE  = 
ORIGINATOR     = 

OBJECT_NAME    = SL-14 R/B
OBJECT_ID      = 1986-046B
CENTER_NAME    = EARTH
REF_FRAME      = TEME
TIME_SYSTEM    = UTC
MEAN_ELEMENT_THEORY = SGP/SGP4

EPOCH          = 2025-12-10T11:48:00.041760
MEAN_MOTION    = 14.85480822
ECCENTRICITY   = .00236032
INCLINATION    = 82.4810
RA_OF_ASC_NODE = 164.4374
ARG_OF_PERICENTER = 159.4931
MEAN_ANOMALY   = 200.7238

EPHEMERIS_TYPE = 0
CLASSIFICATION_TYPE = U
NORAD_CAT_ID   = 16792
ELEMENT_SET_NO = 999
REV_AT_EPOCH   = 11316
BSTAR          = .92223369E-4
MEAN_MOTION_DOT = .824E-5
MEAN_MOTION_DDOT = 0

CCSDS_OMM_VERS = 2.0
CREATION_DATE  = 
ORIGINATOR     = 

OBJECT_NAME    = SL-14 R/B
OBJECT_ID      = 1986-055B
CENTER_NAME    = EARTH
REF_FRAME      = TEME
TIME_SYSTEM    = UTC
MEAN_ELEMENT_THEORY = SGP/SGP4

EPOCH          = 2025-12-10T09:01:47.274240
MEAN_MOTION    = 14.85527471
ECCENTRICITY   = .00174442
INCLINATION    = 82.5206
RA_OF_ASC_NODE = 210.5936
ARG_OF_PERICENTER = 267.9652
MEAN_ANOMALY   = 265.4552

EPHEMERIS_TYPE = 0
CLASSIFICATION_TYPE = U
NORAD_CAT_ID   = 16882
ELEMENT_SET_NO = 999
REV_AT_EPOCH   = 10610
BSTAR          = .81380504E-4
MEAN_MOTION_DOT = .728E-5
MEAN_MOTION_DDOT = 0

CCSDS_OMM_VERS = 2.0
CREATION_DATE  = 
ORIGINATOR     = 

OBJECT_NAME    = AJISAI (EGS)
OBJECT_ID      = 1986-061A
CENTER_NAME    = EARTH
REF_FRAME      = TEME
TIME_SYSTEM    = UTC
MEAN_ELEMENT_THEORY = SGP/SGP4

EPOCH          = 2025-12-10T20:10:23.978784
MEAN_MOTION    = 12.44514248
ECCENTRICITY   = .0011291
INCLINATION    = 50.0114
RA_OF_ASC_NODE = 6.5571
ARG_OF_PERICENTER = 61.1617
MEAN_ANOMALY   = 119.7180

EPHEMERIS_TYPE = 0
CLASSIFICATION_TYPE = U
NORAD_CAT_ID   = 16908
ELEMENT_SET_NO = 999
REV_AT_EPOCH   = 45693
BSTAR          = .30346E-4
MEAN_MOTION_DOT = -.93E-6
MEAN_MOTION_DDOT = 0

CCSDS_OMM_VERS = 2.0
CREATION_DATE  = 
ORIGINATOR     = 

OBJECT_NAME    = COSMOS 1812
OBJECT_ID      = 1987-003A
CENTER_NAME    = EARTH
REF_FRAME      = TEME
TIME_SYSTEM    = UTC
MEAN_ELEMENT_THEORY = SGP/SGP4

EPOCH          = 2025-12-10T07:35:36.244608
MEAN_MOTION    = 15.74840987
ECCENTRICITY   = .0007303
INCLINATION    = 82.4871
RA_OF_ASC_NODE = 294.6387
ARG_OF_PERICENTER = 91.0031
MEAN_ANOMALY   = 269.2070

EPHEMERIS_TYPE = 0
CLASSIFICATION_TYPE = U
NORAD_CAT_ID   = 17295
ELEMENT_SET_NO = 999
REV_AT_EPOCH   = 13027
BSTAR          = .84018E-3
MEAN_MOTION_DOT = .125418E-2
MEAN_MOTION_DDOT = 0

CCSDS_OMM_VERS = 2.0
CREATION_DATE  = 
ORIGINATOR     = 

OBJECT_NAME    = SL-14 R/B
OBJECT_ID      = 1987-024B
CENTER_NAME    = EARTH
REF_FRAME      = TEME
TIME_SYSTEM    = UTC
MEAN_ELEMENT_THEORY = SGP/SGP4

EPOCH          = 2025-12-10T19:50:31.373664
MEAN_MOTION    = 14.86020671
ECCENTRICITY   = .0017911
INCLINATION    = 82.5276
RA_OF_ASC_NODE = 176.2516
ARG_OF_PERICENTER = 190.6315
MEAN_ANOMALY   = 169.4526

EPHEMERIS_TYPE = 0
CLASSIFICATION_TYPE = U
NORAD_CAT_ID   = 17567
ELEMENT_SET_NO = 999
REV_AT_EPOCH   = 7493
BSTAR          = .85063E-4
MEAN_MOTION_DOT = .77E-5
MEAN_MOTION_DDOT = 0

CCSDS_OMM_VERS = 2.0
CREATION_DATE  = 
ORIGINATOR     = 

OBJECT_NAME    = COSMOS 1833
OBJECT_ID      = 1987-027A
CENTER_NAME    = EARTH
REF_FRAME      = TEME
TIME_SYSTEM    = UTC
MEAN_ELEMENT_THEORY = SGP/SGP4

EPOCH          = 2025-12-10T17:39:18.597888
MEAN_MOTION    = 14.13020685
ECCENTRICITY   = .0022441
INCLINATION    = 70.9135
RA_OF_ASC_NODE = 152.9904
ARG_OF_PERICENTER = 334.5253
MEAN_ANOMALY   = 25.4759

EPHEMERIS_TYPE = 0
CLASSIFICATION_TYPE = U
NORAD_CAT_ID   = 17589
ELEMENT_SET_NO = 999
REV_AT_EPOCH   = 99774
BSTAR          = .95231E-4
MEAN_MOTION_DOT = .13E-5
MEAN_MOTION_DDOT = 0

CCSDS_OMM_VERS = 2.0
CREATION_DATE  = 
ORIGINATOR     = 

OBJECT_NAME    = SL-16 R/B
OBJECT_ID      = 1987-027B
CENTER_NAME    = EARTH
REF_FRAME      = TEME
TIME_SYSTEM    = UTC
MEAN_ELEMENT_THEORY = SGP/SGP4

EPOCH          = 2025-12-10T18:07:53.967936
MEAN_MOTION    = 14.17152135
ECCENTRICITY   = .0007457
INCLINATION    = 71.0027
RA_OF_ASC_NODE = 103.8990
ARG_OF_PERICENTER = 261.6142
MEAN_ANOMALY   = 98.4136

EPHEMERIS_TYPE = 0
CLASSIFICATION_TYPE = U
NORAD_CAT_ID   = 17590
ELEMENT_SET_NO = 999
REV_AT_EPOCH   = 274
BSTAR          = -.1802E-5
MEAN_MOTION_DOT = -.52E-6
MEAN_MOTION_DDOT = 0

CCSDS_OMM_VERS = 2.0
CREATION_DATE  = 
ORIGINATOR     = 

OBJECT_NAME    = SL-14 R/B
OBJECT_ID      = 1987-038B
CENTER_NAME    = EARTH
REF_FRAME      = TEME
TIME_SYSTEM    = UTC
MEAN_ELEMENT_THEORY = SGP/SGP4

EPOCH          = 2025-12-10T12:09:29.237760
MEAN_MOTION    = 14.85258202
ECCENTRICITY   = .00208806
INCLINATION    = 82.5018
RA_OF_ASC_NODE = 20.8044
ARG_OF_PERICENTER = 98.9391
MEAN_ANOMALY   = 261.4190

EPHEMERIS_TYPE = 0
CLASSIFICATION_TYPE = U
NORAD_CAT_ID   = 17912
ELEMENT_SET_NO = 999
REV_AT_EPOCH   = 6599
BSTAR          = .78505788E-4
MEAN_MOTION_DOT = .7E-5
MEAN_MOTION_DDOT = 0

CCSDS_OMM_VERS = 2.0
CREATION_DATE  = 
ORIGINATOR     = 

OBJECT_NAME    = COSMOS 1844
OBJECT_ID      = 1987-041A
CENTER_NAME    = EARTH
REF_FRAME      = TEME
TIME_SYSTEM    = UTC
MEAN_ELEMENT_THEORY = SGP/SGP4

EPOCH          = 2025-12-10T15:39:49.682304
MEAN_MOTION    = 14.14526115
ECCENTRICITY   = .0030133
INCLINATION    = 70.8980
RA_OF_ASC_NODE = 221.9735
ARG_OF_PERICENTER = 160.3953
MEAN_ANOMALY   = 199.8335

EPHEMERIS_TYPE = 0
CLASSIFICATION_TYPE = U
NORAD_CAT_ID   = 17973
ELEMENT_SET_NO = 999
REV_AT_EPOCH   = 99099
BSTAR          = -.3036E-4
MEAN_MOTION_DOT = -.107E-5
MEAN_MOTION_DDOT = 0

CCSDS_OMM_VERS = 2.0
CREATION_DATE  = 
ORIGINATOR     = 

OBJECT_NAME    = SL-14 R/B
OBJECT_ID      = 1987-055B
CENTER_NAME    = EARTH
REF_FRAME      = TEME
TIME_SYSTEM    = UTC
MEAN_ELEMENT_THEORY = SGP/SGP4

EPOCH          = 2025-12-10T11:58:21.022752
MEAN_MOTION    = 14.85517771
ECCENTRICITY   = .00195215
INCLINATION    = 82.5002
RA_OF_ASC_NODE = 73.1002
ARG_OF_PERICENTER = 311.2065
MEAN_ANOMALY   = 48.7467

EPHEMERIS_TYPE = 0
CLASSIFICATION_TYPE = U
NORAD_CAT_ID   = 18153
ELEMENT_SET_NO = 999
REV_AT_EPOCH   = 5669
BSTAR          = .92719159E-4
MEAN_MOTION_DOT = .827E-5
MEAN_MOTION_DDOT = 0

CCSDS_OMM_VERS = 2.0
CREATION_DATE  = 
ORIGINATOR     = 

OBJECT_NAME    = COSMOS 1867
OBJECT_ID      = 1987-060A
CENTER_NAME    = EARTH
REF_FRAME      = TEME
TIME_SYSTEM    = UTC
MEAN_ELEMENT_THEORY = SGP/SGP4

EPOCH          = 2025-12-10T20:33:04.814208
MEAN_MOTION    = 14.31485650
ECCENTRICITY   = .0013628
INCLINATION    = 65.0093
RA_OF_ASC_NODE = 195.4773
ARG_OF_PERICENTER = 270.9044
MEAN_ANOMALY   = 89.0479

EPHEMERIS_TYPE = 0
CLASSIFICATION_TYPE = U
NORAD_CAT_ID   = 18187
ELEMENT_SET_NO = 999
REV_AT_EPOCH   = 722
BSTAR          = .38262E-4
MEAN_MOTION_DOT = .2E-7
MEAN_MOTION_DDOT = 0

CCSDS_OMM_VERS = 2.0
CREATION_DATE  = 
ORIGINATOR     = 

OBJECT_NAME    = SL-14 R/B
OBJECT_ID      = 1988-001B
CENTER_NAME    = EARTH
REF_FRAME      = TEME
TIME_SYSTEM    = UTC
MEAN_ELEMENT_THEORY = SGP/SGP4

EPOCH          = 2025-12-10T18:11:09.008160
MEAN_MOTION    = 14.85420782
ECCENTRICITY   = .0018283
INCLINATION    = 82.5132
RA_OF_ASC_NODE = 279.0114
ARG_OF_PERICENTER = 167.4953
MEAN_ANOMALY   = 192.6720

EPHEMERIS_TYPE = 0
CLASSIFICATION_TYPE = U
NORAD_CAT_ID   = 18749
ELEMENT_SET_NO = 999
REV_AT_EPOCH   = 2882
BSTAR          = .97063E-4
MEAN_MOTION_DOT = .862E-5
MEAN_MOTION_DDOT = 0

